[{"OBJECT_NAME":"TOMORROW-S9","OBJECT_ID":"2025-248S","EPOCH":"2026-03-09T00:52:57.672768","MEAN_MOTION":15.1924557,"ECCENTRICITY":0.00037045,"INCLINATION":45.4048,"RA_OF_ASC_NODE":298.2875,"ARG_OF_PERICENTER":215.4557,"MEAN_ANOMALY":144.6083,"EPHEMERIS_TYPE":0,"CLASSIFICATION_TYPE":"U","NORAD_CAT_ID":66309,"ELEMENT_SET_NO":999,"REV_AT_EPOCH":1927,"BSTAR":0.00031245466,"MEAN_MOTION_DOT":6.428e-5,"MEAN_MOTION_DDOT":0},{"OBJECT_NAME":"OBJECT AF","OBJECT_ID":"2025-313AF","EPOCH":"2026-03-09T22:40:24.568320","MEAN_MOTION":15.21283036,"ECCENTRICITY":0.00138127,"INCLINATION":97.398,"RA_OF_ASC_NODE":145.1678,"ARG_OF_PERICENTER":3.4276,"MEAN_ANOMALY":356.7052,"EPHEMERIS_TYPE":0,"CLASSIFICATION_TYPE":"U","NORAD_CAT_ID":67277,"ELEMENT_SET_NO":999,"REV_AT_EPOCH":1085,"BSTAR":0.00037771518,"MEAN_MOTION_DOT":8.4e-5,"MEAN_MOTION_DDOT":0}]
